[{"OBJECT_NAME":"STARLINK-5951","OBJECT_ID":"2023-083AU","EPOCH":"2026-03-09T22:00:01.999584","MEAN_MOTION":15.07846545,"ECCENTRICITY":0.0001419,"INCLINATION":42.9996,"RA_OF_ASC_NODE":67.3957,"ARG_OF_PERICENTER":293.741,"MEAN_ANOMALY":156.9894,"EPHEMERIS_TYPE":0,"CLASSIFICATION_TYPE":"U","NORAD_CAT_ID":56918,"ELEMENT_SET_NO":999,"REV_AT_EPOCH":563,"BSTAR":0.0042213155,"MEAN_MOTION_DOT":0.00066181,"MEAN_MOTION_DDOT":0},{"OBJECT_NAME":"DELFI-N3XT","OBJECT_ID":"2013-066N","EPOCH":"2026-03-09T17:56:16.820160","MEAN_MOTION":14.93675177,"ECCENTRICITY":0.00763289,"INCLINATION":97.8341,"RA_OF_ASC_NODE":349.2574,"ARG_OF_PERICENTER":176.1438,"MEAN_ANOMALY":184.0386,"EPHEMERIS_TYPE":0,"CLASSIFICATION_TYPE":"U","NORAD_CAT_ID":39428,"ELEMENT_SET_NO":999,"REV_AT_EPOCH":65977,"BSTAR":0.00065912071,"MEAN_MOTION_DOT":7.321e-5,"MEAN_MOTION_DDOT":0}]
